STARLINK-11560 [DTC]    
1 62917U 25027L   26196.30806973  .00149222  00000+0  11419-2 0  9998
2 62917  42.9993 298.3806 0001278 273.8507  86.2215 15.70917634 83221
STARLINK-11562 [DTC]    
1 62918U 25027M   26196.36103781  .00116840  00000+0  89985-3 0  9996
2 62918  42.9994 297.9104 0003496 291.7047  68.3449 15.70873765 83272
STARLINK-11457 [DTC]    
1 62919U 25027N   26196.28683275  .00145318  00000+0  11158-2 0  9997
2 62919  42.9983 298.2075 0000742 253.6257 106.4529 15.70850675 83226
STARLINK-32921          
1 62920U 25027P   26196.19193470  .00006920  00000+0  26074-3 0  9991
2 62920  43.0019 128.6793 0000858 264.5179  95.5574 15.27582814 81040
STARLINK-32917          
1 62921U 25027Q   26196.20606541  .00008375  00000+0  31344-3 0  9994
2 62921  43.0021 128.7791 0001193 261.5131  98.5586 15.27589378 81049
STARLINK-32916          
1 62922U 25027R   26196.84965147  .00009163  00000+0  34187-3 0  9999
2 62922  42.9972 125.0086 0001200  90.3437 269.7552 15.27601288 81147
STARLINK-32905          
1 62923U 25027S   26196.80611280  .00010148  00000+0  37770-3 0  9998
2 62923  42.9961 125.5511 0001756  12.6470 347.4425 15.27587356 81135
STARLINK-32871          
1 62924U 25027T   26196.20221173  .00007695  00000+0  28883-3 0  9999
2 62924  43.0024 128.7461 0001368 262.2497  97.8199 15.27585002 81048
STARLINK-32920          
1 62925U 25027U   26196.19835792  .00007167  00000+0  26966-3 0  9990
2 62925  43.0015 128.7211 0001083 271.3424  88.7304 15.27585322 81049
STARLINK-32922          
1 62926U 25027V   26196.14838730  .00010709  00000+0  39796-3 0  9992
2 62926  43.0016 129.2033 0002087 263.3044  96.7570 15.27592590 81031
STARLINK-32891          
1 62927U 25027W   26196.80868084  .00011889  00000+0  44066-3 0  9997
2 62927  42.9985 125.5643 0001009 326.4477  33.6311 15.27596004 81256
STARLINK-32728          
1 62948U 25029A   26196.73942446  .00022416  00000+0  67255-3 0  9992
2 62948  53.1594 354.0632 0001126  91.8119 268.3013 15.34401850 81014
STARLINK-32857          
1 62949U 25029B   26196.81501153  .00017436  00000+0  52606-3 0  9998
2 62949  53.1599 353.1200 0001054  72.8275 287.2843 15.34394899 81030
STARLINK-32850          
1 62950U 25029C   26196.73939084  .00008746  00000+0  29327-3 0  9997
2 62950  53.1597 356.8927 0001552 106.0108 254.1064 15.31698128 80940
STARLINK-32875          
1 62951U 25029D   26196.81288817  .00012207  00000+0  37192-3 0  9994
2 62951  53.1619 353.0978 0000856  15.8706 344.2324 15.34391623 81009
STARLINK-32865          
1 62952U 25029E   26196.73472322  .00011074  00000+0  36802-3 0  9990
2 62952  53.1601 356.8677 0000892  94.5140 265.5963 15.31704908 80941
STARLINK-32884          
1 62953U 25029F   26196.69523922  .00014242  00000+0  43183-3 0  9999
2 62953  53.1624 353.7896 0001435  65.3539 294.7613 15.34401490 80981
STARLINK-32874          
1 62954U 25029G   26196.81709529  .00010665  00000+0  32638-3 0  9991
2 62954  53.1610 353.1246 0001202  83.8348 276.2792 15.34395944 81008
STARLINK-32880          
1 62955U 25029H   26196.46440598  .00019958  00000+0  65292-3 0  9997
2 62955  53.1606 358.0247 0001284  87.4978 272.6170 15.31712907 80905
STARLINK-32815          
1 62956U 25029J   26196.45362924  .00015835  00000+0  47883-3 0  9999
2 62956  53.1597 355.1232 0000537  84.7351 275.3713 15.34397692 80942
STARLINK-32879          
1 62957U 25029K   26196.82331080  .00008855  00000+0  29672-3 0  9990
2 62957  53.1611 356.7110 0001150  92.7882 267.3251 15.31705019 80943
STARLINK-32885          
1 62958U 25029L   26196.44100652  .00022009  00000+0  66065-3 0  9992
2 62958  53.1629 355.0422 0000854  99.8089 260.3010 15.34398498 80935
STARLINK-32896          
1 62959U 25029M   26196.71193770  .00011000  00000+0  38296-3 0  9990
2 62959  53.1629 358.1417 0001376  91.7153 268.4006 15.30199493 80919
STARLINK-32877          
1 62960U 25029N   26196.73416071  .00015988  00000+0  48335-3 0  9990
2 62960  53.1603 357.5711 0000989  97.3598 262.7517 15.34397378 80906
STARLINK-32889          
1 62961U 25029P   26196.46730203  .00017257  00000+0  52065-3 0  9993
2 62961  53.1602 358.7521 0001202  99.7653 260.3486 15.34403446 80885
STARLINK-32858          
1 62962U 25029Q   26195.73526825  .00013864  00000+0  47934-3 0  9995
2 62962  53.1617   2.0042 0001312  86.8921 273.2230 15.30201382 80753
STARLINK-32882          
1 62963U 25029R   26196.81919521  .00021123  00000+0  63418-3 0  9997
2 62963  53.1587 353.1383 0001679  63.7936 296.3239 15.34417998 80991
STARLINK-32887          
1 62964U 25029S   26196.46625424  .00012511  00000+0  38085-3 0  9998
2 62964  53.1600 355.1994 0001478 110.3762 249.7399 15.34394625 80935
STARLINK-32836          
1 62965U 25029T   26196.74152707  .00006587  00000+0  20596-3 0  9993
2 62965  53.1593 354.0746 0000884  96.6826 263.4277 15.34391379 80972
STARLINK-32888          
1 62966U 25029U   26196.81402400  .00006608  00000+0  20653-3 0  9998
2 62966  53.1621 357.3683 0000738  77.1752 282.9333 15.34399339 80930
