OBJECT_NAME,OBJECT_ID,EPOCH,MEAN_MOTION,ECCENTRICITY,INCLINATION,RA_OF_ASC_NODE,ARG_OF_PERICENTER,MEAN_ANOMALY,EPHEMERIS_TYPE,CLASSIFICATION_TYPE,NORAD_CAT_ID,ELEMENT_SET_NO,REV_AT_EPOCH,BSTAR,MEAN_MOTION_DOT,MEAN_MOTION_DDOT
STARLINK-11560 [DTC],2025-027L,2026-07-15T07:23:37.224672,15.70917634,.00012784,42.9993,298.3806,273.8507,86.2215,0,U,62917,999,8322,.11419386E-2,.149222E-2,0
STARLINK-11562 [DTC],2025-027M,2026-07-15T08:39:53.666784,15.70873765,.0003496,42.9994,297.9104,291.7047,68.3449,0,U,62918,999,8327,.89984723E-3,.11684E-2,0
STARLINK-11457 [DTC],2025-027N,2026-07-15T06:53:02.349600,15.70850675,.0000742,42.9983,298.2075,253.6257,106.4529,0,U,62919,999,8322,.11158059E-2,.145318E-2,0
STARLINK-32921,2025-027P,2026-07-15T04:36:23.158080,15.27582814,.00008585,43.0019,128.6793,264.5179,95.5574,0,U,62920,999,8104,.26074354E-3,.692E-4,0
STARLINK-32917,2025-027Q,2026-07-15T04:56:44.051424,15.27589378,.00011935,43.0021,128.7791,261.5131,98.5586,0,U,62921,999,8104,.31343551E-3,.8375E-4,0
STARLINK-32916,2025-027R,2026-07-15T20:23:29.887008,15.27601288,.00012,42.9972,125.0086,90.3437,269.7552,0,U,62922,999,8114,.34187E-3,.9163E-4,0
STARLINK-32905,2025-027S,2026-07-15T19:20:48.145920,15.27587356,.0001756,42.9961,125.5511,12.6470,347.4425,0,U,62923,999,8113,.3777E-3,.10148E-3,0
STARLINK-32871,2025-027T,2026-07-15T04:51:11.093472,15.27585002,.0001368,43.0024,128.7461,262.2497,97.8199,0,U,62924,999,8104,.28882844E-3,.7695E-4,0
STARLINK-32920,2025-027U,2026-07-15T04:45:38.124288,15.27585322,.00010833,43.0015,128.7211,271.3424,88.7304,0,U,62925,999,8104,.26966497E-3,.7167E-4,0
STARLINK-32922,2025-027V,2026-07-15T03:33:40.662720,15.27592590,.00020874,43.0016,129.2033,263.3044,96.7570,0,U,62926,999,8103,.39795676E-3,.10709E-3,0
STARLINK-32891,2025-027W,2026-07-15T19:24:30.024576,15.27596004,.0001009,42.9985,125.5643,326.4477,33.6311,0,U,62927,999,8125,.44066E-3,.11889E-3,0
STARLINK-32728,2025-029A,2026-07-15T17:44:46.273344,15.34401850,.0001126,53.1594,354.0632,91.8119,268.3013,0,U,62948,999,8101,.67255E-3,.22416E-3,0
STARLINK-32857,2025-029B,2026-07-15T19:33:36.996192,15.34394899,.0001054,53.1599,353.1200,72.8275,287.2843,0,U,62949,999,8103,.52606E-3,.17436E-3,0
STARLINK-32850,2025-029C,2026-07-15T17:44:43.368576,15.31698128,.0001552,53.1597,356.8927,106.0108,254.1064,0,U,62950,999,8094,.29327E-3,.8746E-4,0
STARLINK-32875,2025-029D,2026-07-15T19:30:33.537888,15.34391623,.0000856,53.1619,353.0978,15.8706,344.2324,0,U,62951,999,8100,.37192E-3,.12207E-3,0
STARLINK-32865,2025-029E,2026-07-15T17:38:00.086208,15.31704908,.0000892,53.1601,356.8677,94.5140,265.5963,0,U,62952,999,8094,.36802E-3,.11074E-3,0
STARLINK-32884,2025-029F,2026-07-15T16:41:08.668608,15.34401490,.0001435,53.1624,353.7896,65.3539,294.7613,0,U,62953,999,8098,.43183E-3,.14242E-3,0
STARLINK-32874,2025-029G,2026-07-15T19:36:37.033056,15.34395944,.0001202,53.1610,353.1246,83.8348,276.2792,0,U,62954,999,8100,.32638E-3,.10665E-3,0
STARLINK-32880,2025-029H,2026-07-15T11:08:44.676672,15.31712907,.0001284,53.1606,358.0247,87.4978,272.6170,0,U,62955,999,8090,.65292E-3,.19958E-3,0
STARLINK-32815,2025-029J,2026-07-15T10:53:13.566336,15.34397692,.00005372,53.1597,355.1232,84.7351,275.3713,0,U,62956,999,8094,.47882946E-3,.15835E-3,0
STARLINK-32879,2025-029K,2026-07-15T19:45:34.053120,15.31705019,.000115,53.1611,356.7110,92.7882,267.3251,0,U,62957,999,8094,.29672E-3,.8855E-4,0
STARLINK-32885,2025-029L,2026-07-15T10:35:02.963328,15.34398498,.00008549,53.1629,355.0422,99.8089,260.3010,0,U,62958,999,8093,.66064867E-3,.22009E-3,0
STARLINK-32896,2025-029M,2026-07-15T17:05:11.417280,15.30199493,.0001376,53.1629,358.1417,91.7153,268.4006,0,U,62959,999,8091,.38296E-3,.11E-3,0
STARLINK-32877,2025-029N,2026-07-15T17:37:11.485344,15.34397378,.0000989,53.1603,357.5711,97.3598,262.7517,0,U,62960,999,8090,.48335E-3,.15988E-3,0
STARLINK-32889,2025-029P,2026-07-15T11:12:54.895392,15.34403446,.00012025,53.1602,358.7521,99.7653,260.3486,0,U,62961,999,8088,.52064973E-3,.17257E-3,0
STARLINK-32858,2025-029Q,2026-07-14T17:38:47.176800,15.30201382,.00013123,53.1617,2.0042,86.8921,273.2230,0,U,62962,999,8075,.4793358E-3,.13864E-3,0
STARLINK-32882,2025-029R,2026-07-15T19:39:38.466144,15.34417998,.0001679,53.1587,353.1383,63.7936,296.3239,0,U,62963,999,8099,.63418E-3,.21123E-3,0
STARLINK-32887,2025-029S,2026-07-15T11:11:24.366336,15.34394625,.00014789,53.1600,355.1994,110.3762,249.7399,0,U,62964,999,8093,.38084893E-3,.12511E-3,0
STARLINK-32836,2025-029T,2026-07-15T17:47:47.938848,15.34391379,.0000884,53.1593,354.0746,96.6826,263.4277,0,U,62965,999,8097,.20596E-3,.6587E-4,0
STARLINK-32888,2025-029U,2026-07-15T19:32:11.673600,15.34399339,.0000738,53.1621,357.3683,77.1752,282.9333,0,U,62966,999,8093,.20653E-3,.6608E-4,0
